{
    "links": {
        "self": "http://www.neowsapp.com/rest/v1/neo/3311863?api_key=iIulBulltgU6a56xZRHN4H3l9WmuAYTsLGpBGhQ2"
    },
    "id": "3311863",
    "neo_reference_id": "3311863",
    "name": "(2006 AP3)",
    "designation": "2006 AP3",
    "nasa_jpl_url": "http://ssd.jpl.nasa.gov/sbdb.cgi?sstr=3311863",
    "absolute_magnitude_h": 23.8,
    "estimated_diameter": {
        "kilometers": {
            "estimated_diameter_min": 0.046190746,
            "estimated_diameter_max": 0.1032856481
        },
        "meters": {
            "estimated_diameter_min": 46.1907460282,
            "estimated_diameter_max": 103.2856480504
        },
        "miles": {
            "estimated_diameter_min": 0.0287015901,
            "estimated_diameter_max": 0.0641787064
        },
        "feet": {
            "estimated_diameter_min": 151.544447199,
            "estimated_diameter_max": 338.8636855496
        }
    },
    "is_potentially_hazardous_asteroid": false,
    "close_approach_data": [
        {
            "close_approach_date": "2006-01-05",
            "close_approach_date_full": "2006-Jan-05 23:27",
            "epoch_date_close_approach": 1136503620000,
            "relative_velocity": {
                "kilometers_per_second": "6.4420455617",
                "kilometers_per_hour": "23191.364022226",
                "miles_per_hour": "14410.2117170326"
            },
            "miss_distance": {
                "astronomical": "0.0993746077",
                "lunar": "38.6567223953",
                "kilometers": "14866229.644005599",
                "miles": "9237446.7546873062"
            },
            "orbiting_body": "Earth"
        },
        {
            "close_approach_date": "2015-01-21",
            "close_approach_date_full": "2015-Jan-21 02:19",
            "epoch_date_close_approach": 1421806740000,
            "relative_velocity": {
                "kilometers_per_second": "11.0743852328",
                "kilometers_per_hour": "39867.786838188",
                "miles_per_hour": "24772.2923273174"
            },
            "miss_distance": {
                "astronomical": "0.2993136205",
                "lunar": "116.4329983745",
                "kilometers": "44776680.088788335",
                "miles": "27822938.840355623"
            },
            "orbiting_body": "Earth"
        }
    ],
    "orbital_data": {
        "orbit_id": "11",
        "orbit_determination_date": "2017-04-06 09:09:28",
        "first_observation_date": "2006-01-06",
        "last_observation_date": "2006-02-01",
        "data_arc_in_days": 26,
        "observations_used": 40,
        "orbit_uncertainty": "7",
        "minimum_orbit_intersection": ".0980146",
        "jupiter_tisserand_invariant": "4.071",
        "epoch_osculation": "2459000.5",
        "eccentricity": ".3733769833391822",
        "semi_major_axis": "1.723217561543199",
        "inclination": "10.00640025590905",
        "ascending_node_longitude": "289.725427703914",
        "orbital_period": "826.2445251083673",
        "perihelion_distance": "1.079807786777098",
        "perihelion_argument": "172.3751062820385",
        "aphelion_distance": "2.366627336309301",
        "perihelion_time": "2458693.260741036759",
        "mean_anomaly": "133.8661012153273",
        "mean_motion": ".4357063666507003",
        "equinox": "J2000",
        "orbit_class": {
            "orbit_class_type": "AMO",
            "orbit_class_description": "Near-Earth asteroid orbits similar to that of 1221 Amor",
            "orbit_class_range": "1.017 AU < q (perihelion) < 1.3 AU"
        }
    },
    "is_sentry_object": false
}